LANDSAT 8               
1 39084U 13008A   20169.05510042  .00000018  00000-0  14177-4 0  9994
2 39084  98.2256 238.7605 0001121  89.1745 270.9583 14.57101986390646
